STARLINK-2022           
1 47643U 21012Z   24054.54394667  .00003630  00000+0  26245-3 0  9992
2 47643  53.0532 156.7086 0001367  91.9570 268.1576 15.06401178167951
